STARLINK-36992          
1 68149U 26049H   26090.11979404  .00157995  00000+0  80800-3 0  9995
2 68149  97.2842 110.4502 0001305  35.9467 324.1889 15.80889980  2797
STARLINK-37060          
1 68150U 26049J   26090.24564212  .00257279  00000+0  12989-2 0  9996
2 68150  97.2837 110.5852 0000903  66.3539 293.7824 15.80913144  2816
STARLINK-37073          
1 68151U 26049K   26090.30819556  .00199937  00000+0  10178-2 0  9992
2 68151  97.2838 110.6532 0001476 108.3621 251.7808 15.80881117  2820
STARLINK-37049          
1 68152U 26049L   26090.30744508  .00331505  00000+0  16579-2 0  9997
2 68152  97.2838 110.6545 0001292 105.2033 254.9379 15.80928982  2824
STARLINK-37072          
1 68153U 26049M   26090.25002315 -.00155298  00000+0 -10557-2 0  9990
2 68153  97.2843 110.5915 0001000  83.9600 301.2210 15.75269417  4085
STARLINK-36241          
1 68154U 26049N   26090.25759777  .00172695  00000+0  11337-2 0  9997
2 68154  97.2837 110.5684 0001248  94.9850 265.1557 15.75224520  2812
STARLINK-37048          
1 68155U 26049P   26090.30368763  .00135810  00000+0  69751-3 0  9997
2 68155  97.2843 110.6589 0001486 118.8419 241.2999 15.80855537  2826
STARLINK-36313          
1 68156U 26049Q   26090.30444056  .00156433  00000+0  80150-3 0  9998
2 68156  97.2846 110.6574 0001251  79.9712 280.1697 15.80853447  2822
STARLINK-37064          
1 68157U 26049R   26090.30594304  .00186615  00000+0  95192-3 0  9998
2 68157  97.2848 110.6555 0001322  78.2730 281.8687 15.80870945  2824
STARLINK-37069          
1 68158U 26049S   26090.19053872  .00159787  00000+0  10499-2 0  9992
2 68158  97.2839 110.5065 0001225  76.9020 283.2382 15.75240815  2806
STARLINK-37053          
1 68159U 26049T   26090.23813011  .00122691  00000+0  63083-3 0  9999
2 68159  97.2850 110.5942 0001335 119.7707 240.3694 15.80867348  2817
STARLINK-36306          
1 68160U 26049U   26090.25002315  .00126922  00000+0  84245-3 0  9994
2 68160  97.2841 110.5798 0001355  92.6824 266.5378 15.75100974  4099
