CCSDS_OMM_VERS = 2.0
CREATION_DATE  = 
ORIGINATOR     = 

OBJECT_NAME    = STARLINK-36992
OBJECT_ID      = 2026-049H
CENTER_NAME    = EARTH
REF_FRAME      = TEME
TIME_SYSTEM    = UTC
MEAN_ELEMENT_THEORY = SGP/SGP4

EPOCH          = 2026-03-31T02:52:30.205056
MEAN_MOTION    = 15.80889980
ECCENTRICITY   = .00013054
INCLINATION    = 97.2842
RA_OF_ASC_NODE = 110.4502
ARG_OF_PERICENTER = 35.9467
MEAN_ANOMALY   = 324.1889

EPHEMERIS_TYPE = 0
CLASSIFICATION_TYPE = U
NORAD_CAT_ID   = 68149
ELEMENT_SET_NO = 999
REV_AT_EPOCH   = 279
BSTAR          = .80800281E-3
MEAN_MOTION_DOT = .157995E-2
MEAN_MOTION_DDOT = 0

CCSDS_OMM_VERS = 2.0
CREATION_DATE  = 
ORIGINATOR     = 

OBJECT_NAME    = STARLINK-37060
OBJECT_ID      = 2026-049J
CENTER_NAME    = EARTH
REF_FRAME      = TEME
TIME_SYSTEM    = UTC
MEAN_ELEMENT_THEORY = SGP/SGP4

EPOCH          = 2026-03-31T05:53:43.479168
MEAN_MOTION    = 15.80913144
ECCENTRICITY   = .00009038
INCLINATION    = 97.2837
RA_OF_ASC_NODE = 110.5852
ARG_OF_PERICENTER = 66.3539
MEAN_ANOMALY   = 293.7824

EPHEMERIS_TYPE = 0
CLASSIFICATION_TYPE = U
NORAD_CAT_ID   = 68150
ELEMENT_SET_NO = 999
REV_AT_EPOCH   = 281
BSTAR          = .12989104E-2
MEAN_MOTION_DOT = .257279E-2
MEAN_MOTION_DDOT = 0

CCSDS_OMM_VERS = 2.0
CREATION_DATE  = 
ORIGINATOR     = 

OBJECT_NAME    = STARLINK-37073
OBJECT_ID      = 2026-049K
CENTER_NAME    = EARTH
REF_FRAME      = TEME
TIME_SYSTEM    = UTC
MEAN_ELEMENT_THEORY = SGP/SGP4

EPOCH          = 2026-03-31T07:23:48.096384
MEAN_MOTION    = 15.80881117
ECCENTRICITY   = .00014765
INCLINATION    = 97.2838
RA_OF_ASC_NODE = 110.6532
ARG_OF_PERICENTER = 108.3621
MEAN_ANOMALY   = 251.7808

EPHEMERIS_TYPE = 0
CLASSIFICATION_TYPE = U
NORAD_CAT_ID   = 68151
ELEMENT_SET_NO = 999
REV_AT_EPOCH   = 282
BSTAR          = .10177757E-2
MEAN_MOTION_DOT = .199937E-2
MEAN_MOTION_DDOT = 0

CCSDS_OMM_VERS = 2.0
CREATION_DATE  = 
ORIGINATOR     = 

OBJECT_NAME    = STARLINK-37049
OBJECT_ID      = 2026-049L
CENTER_NAME    = EARTH
REF_FRAME      = TEME
TIME_SYSTEM    = UTC
MEAN_ELEMENT_THEORY = SGP/SGP4

EPOCH          = 2026-03-31T07:22:43.254912
MEAN_MOTION    = 15.80928982
ECCENTRICITY   = .00012925
INCLINATION    = 97.2838
RA_OF_ASC_NODE = 110.6545
ARG_OF_PERICENTER = 105.2033
MEAN_ANOMALY   = 254.9379

EPHEMERIS_TYPE = 0
CLASSIFICATION_TYPE = U
NORAD_CAT_ID   = 68152
ELEMENT_SET_NO = 999
REV_AT_EPOCH   = 282
BSTAR          = .1657923E-2
MEAN_MOTION_DOT = .331505E-2
MEAN_MOTION_DDOT = 0

CCSDS_OMM_VERS = 2.0
CREATION_DATE  = 
ORIGINATOR     = 

OBJECT_NAME    = STARLINK-37072
OBJECT_ID      = 2026-049M
CENTER_NAME    = EARTH
REF_FRAME      = TEME
TIME_SYSTEM    = UTC
MEAN_ELEMENT_THEORY = SGP/SGP4

EPOCH          = 2026-03-31T06:00:02.000160
MEAN_MOTION    = 15.75269417
ECCENTRICITY   = .00010005
INCLINATION    = 97.2843
RA_OF_ASC_NODE = 110.5915
ARG_OF_PERICENTER = 83.9600
MEAN_ANOMALY   = 301.2210

EPHEMERIS_TYPE = 0
CLASSIFICATION_TYPE = U
NORAD_CAT_ID   = 68153
ELEMENT_SET_NO = 999
REV_AT_EPOCH   = 408
BSTAR          = -.10557194E-2
MEAN_MOTION_DOT = -.155298E-2
MEAN_MOTION_DDOT = 0

CCSDS_OMM_VERS = 2.0
CREATION_DATE  = 
ORIGINATOR     = 

OBJECT_NAME    = STARLINK-36241
OBJECT_ID      = 2026-049N
CENTER_NAME    = EARTH
REF_FRAME      = TEME
TIME_SYSTEM    = UTC
MEAN_ELEMENT_THEORY = SGP/SGP4

EPOCH          = 2026-03-31T06:10:56.447328
MEAN_MOTION    = 15.75224520
ECCENTRICITY   = .00012482
INCLINATION    = 97.2837
RA_OF_ASC_NODE = 110.5684
ARG_OF_PERICENTER = 94.9850
MEAN_ANOMALY   = 265.1557

EPHEMERIS_TYPE = 0
CLASSIFICATION_TYPE = U
NORAD_CAT_ID   = 68154
ELEMENT_SET_NO = 999
REV_AT_EPOCH   = 281
BSTAR          = .11337401E-2
MEAN_MOTION_DOT = .172695E-2
MEAN_MOTION_DDOT = 0

CCSDS_OMM_VERS = 2.0
CREATION_DATE  = 
ORIGINATOR     = 

OBJECT_NAME    = STARLINK-37048
OBJECT_ID      = 2026-049P
CENTER_NAME    = EARTH
REF_FRAME      = TEME
TIME_SYSTEM    = UTC
MEAN_ELEMENT_THEORY = SGP/SGP4

EPOCH          = 2026-03-31T07:17:18.611232
MEAN_MOTION    = 15.80855537
ECCENTRICITY   = .0001486
INCLINATION    = 97.2843
RA_OF_ASC_NODE = 110.6589
ARG_OF_PERICENTER = 118.8419
MEAN_ANOMALY   = 241.2999

EPHEMERIS_TYPE = 0
CLASSIFICATION_TYPE = U
NORAD_CAT_ID   = 68155
ELEMENT_SET_NO = 999
REV_AT_EPOCH   = 282
BSTAR          = .69751328E-3
MEAN_MOTION_DOT = .13581E-2
MEAN_MOTION_DDOT = 0

CCSDS_OMM_VERS = 2.0
CREATION_DATE  = 
ORIGINATOR     = 

OBJECT_NAME    = STARLINK-36313
OBJECT_ID      = 2026-049Q
CENTER_NAME    = EARTH
REF_FRAME      = TEME
TIME_SYSTEM    = UTC
MEAN_ELEMENT_THEORY = SGP/SGP4

EPOCH          = 2026-03-31T07:18:23.664384
MEAN_MOTION    = 15.80853447
ECCENTRICITY   = .00012513
INCLINATION    = 97.2846
RA_OF_ASC_NODE = 110.6574
ARG_OF_PERICENTER = 79.9712
MEAN_ANOMALY   = 280.1697

EPHEMERIS_TYPE = 0
CLASSIFICATION_TYPE = U
NORAD_CAT_ID   = 68156
ELEMENT_SET_NO = 999
REV_AT_EPOCH   = 282
BSTAR          = .80150051E-3
MEAN_MOTION_DOT = .156433E-2
MEAN_MOTION_DDOT = 0

CCSDS_OMM_VERS = 2.0
CREATION_DATE  = 
ORIGINATOR     = 

OBJECT_NAME    = STARLINK-37064
OBJECT_ID      = 2026-049R
CENTER_NAME    = EARTH
REF_FRAME      = TEME
TIME_SYSTEM    = UTC
MEAN_ELEMENT_THEORY = SGP/SGP4

EPOCH          = 2026-03-31T07:20:33.478656
MEAN_MOTION    = 15.80870945
ECCENTRICITY   = .00013229
INCLINATION    = 97.2848
RA_OF_ASC_NODE = 110.6555
ARG_OF_PERICENTER = 78.2730
MEAN_ANOMALY   = 281.8687

EPHEMERIS_TYPE = 0
CLASSIFICATION_TYPE = U
NORAD_CAT_ID   = 68157
ELEMENT_SET_NO = 999
REV_AT_EPOCH   = 282
BSTAR          = .95191783E-3
MEAN_MOTION_DOT = .186615E-2
MEAN_MOTION_DDOT = 0

CCSDS_OMM_VERS = 2.0
CREATION_DATE  = 
ORIGINATOR     = 

OBJECT_NAME    = STARLINK-37069
OBJECT_ID      = 2026-049S
CENTER_NAME    = EARTH
REF_FRAME      = TEME
TIME_SYSTEM    = UTC
MEAN_ELEMENT_THEORY = SGP/SGP4

EPOCH          = 2026-03-31T04:34:22.545408
MEAN_MOTION    = 15.75240815
ECCENTRICITY   = .00012257
INCLINATION    = 97.2839
RA_OF_ASC_NODE = 110.5065
ARG_OF_PERICENTER = 76.9020
MEAN_ANOMALY   = 283.2382

EPHEMERIS_TYPE = 0
CLASSIFICATION_TYPE = U
NORAD_CAT_ID   = 68158
ELEMENT_SET_NO = 999
REV_AT_EPOCH   = 280
BSTAR          = .1049923E-2
MEAN_MOTION_DOT = .159787E-2
MEAN_MOTION_DDOT = 0

CCSDS_OMM_VERS = 2.0
CREATION_DATE  = 
ORIGINATOR     = 

OBJECT_NAME    = STARLINK-37053
OBJECT_ID      = 2026-049T
CENTER_NAME    = EARTH
REF_FRAME      = TEME
TIME_SYSTEM    = UTC
MEAN_ELEMENT_THEORY = SGP/SGP4

EPOCH          = 2026-03-31T05:42:54.441504
MEAN_MOTION    = 15.80867348
ECCENTRICITY   = .00013357
INCLINATION    = 97.2850
RA_OF_ASC_NODE = 110.5942
ARG_OF_PERICENTER = 119.7707
MEAN_ANOMALY   = 240.3694

EPHEMERIS_TYPE = 0
CLASSIFICATION_TYPE = U
NORAD_CAT_ID   = 68159
ELEMENT_SET_NO = 999
REV_AT_EPOCH   = 281
BSTAR          = .63082558E-3
MEAN_MOTION_DOT = .122691E-2
MEAN_MOTION_DDOT = 0

CCSDS_OMM_VERS = 2.0
CREATION_DATE  = 
ORIGINATOR     = 

OBJECT_NAME    = STARLINK-36306
OBJECT_ID      = 2026-049U
CENTER_NAME    = EARTH
REF_FRAME      = TEME
TIME_SYSTEM    = UTC
MEAN_ELEMENT_THEORY = SGP/SGP4

EPOCH          = 2026-03-31T06:00:02.000160
MEAN_MOTION    = 15.75100974
ECCENTRICITY   = .00013552
INCLINATION    = 97.2841
RA_OF_ASC_NODE = 110.5798
ARG_OF_PERICENTER = 92.6824
MEAN_ANOMALY   = 266.5378

EPHEMERIS_TYPE = 0
CLASSIFICATION_TYPE = U
NORAD_CAT_ID   = 68160
ELEMENT_SET_NO = 999
REV_AT_EPOCH   = 409
BSTAR          = .84245257E-3
MEAN_MOTION_DOT = .126922E-2
MEAN_MOTION_DDOT = 0

